satname,norad_id,inclination_deg,eccentricity,mean_motion_rev_per_day,perigee_km,apogee_km,l1,l2
STARLINK-1458,45675,53.053,0.0006444,15.42484218,434.38742342988735,443.17306637511774,1 45675U 20035U   26063.75503470  .00089785  00000+0  20252-2 0  9994,2 45675  53.0530  78.9249 0006444  59.9722 300.1922 15.42484218318093
STARLINK-1460,45676,53.1354,0.0001401,15.25050929,489.6701934174871,491.5948226336359,1 45676U 20035V   26063.91668981  .00885965  00000+0  32496-1 0  9998,2 45676  53.1354  86.9967 0001401  86.9292  91.1190 15.25050929  5844
STARLINK-1392,45677,53.1549,0.0001074,15.29319155,477.11004348051574,478.58270870970136,1 45677U 20035W   26063.91668981  .00063613  00000+0  22004-2 0  9992,2 45677  53.1549  86.9069 0001074  96.4471  70.8334 15.29319155  5774
STARLINK-1394,45679,53.0509,0.0002287,15.48774012,418.7566039822286,421.8662142845669,1 45679U 20035Y   26063.26267820  .00115304  00000+0  20893-2 0  9998,2 45679  53.0509  62.5786 0002287  94.2443 265.8825 15.48774012318315
STARLINK-1402,45685,53.0493,6.75e-05,15.43798889,434.44970643381293,435.36946772306874,1 45685U 20035AE  26063.21860602  .00103172  00000+0  22226-2 0  9999,2 45685  53.0493  49.4227 0000675 246.1071 113.9864 15.43798889318502
STARLINK-1404,45686,53.1609,0.0001437,15.30187613,474.26722301084646,476.2368870252585,1 45686U 20035AF  26063.34006523 -.00000588  00000+0 -77436-5 0  9993,2 45686  53.1609  74.5479 0001437  88.5214 271.5951 15.30187613318157
STARLINK-1413,45689,53.1615,0.0001307,15.30195296,474.33337980020497,476.12484970260084,1 45689U 20035AJ  26063.73825140  .00000150  00000+0  17187-4 0  9992,2 45689  53.1615  72.5767 0001307  90.9417 269.1734 15.30195296318139
STARLINK-1417,45693,53.0517,0.0002401,15.12142492,528.008804385825,531.3259320434418,1 45693U 20035AN  26063.31112601  .00035492  00000+0  20423-2 0  9994,2 45693  53.0517  78.6793 0002401 216.2077 143.8753 15.12142492318084
STARLINK-1420,45695,53.0543,0.0003627,15.5238138,407.3133569195579,412.237308525715,1 45695U 20035AQ  26063.33658230  .00120959  00000+0  19267-2 0  9998,2 45695  53.0543  48.2159 0003627  75.9376 284.2036 15.52381380318525
STARLINK-1422,45696,53.161,0.0001452,15.30182224,474.2730314378141,476.26326029217216,1 45696U 20035AR  26063.81094805  .00000746  00000+0  37340-4 0  9999,2 45696  53.1610  72.2430 0001452  90.3692 269.7475 15.30182224318221
STARLINK-1351,45697,53.053,0.000315,15.51266706,410.88739614991755,415.1658292259117,1 45697U 20035AS  26063.91668981  .00162740  00000+0  26809-2 0  9992,2 45697  53.0530  44.5888 0003150 100.5948  54.7576 15.51266706  5954
STARLINK-1398,45699,53.037,0.0003963,15.91980187,294.0968224968192,299.38733165330905,1 45699U 20035AU  26063.91668981  .00270359  38541-4  80555-3 0  9995,2 45699  53.0370 323.6394 0003963 147.0948  87.3450 15.91980187  5996
STARLINK-1400,45700,53.0516,0.0007676,15.4942064,413.2027520042884,423.63682598675496,1 45700U 20035AV  26063.78759499  .00096834  00000+0  17191-2 0  9991,2 45700  53.0516  46.4801 0007676  72.1448 288.0396 15.49420640318589
STARLINK-1403,45701,53.0691,0.0002105,15.10301141,533.8255920181746,536.7361409399609,1 45701U 20035AW  26063.91668981  .01524415  00000+0  84854-1 0  9993,2 45701  53.0691  58.0168 0002105  78.9373  40.3976 15.10301141  5849
STARLINK-1407,45703,53.0375,0.0011275,15.58450686,384.506935960183,399.7739115507511,1 45703U 20035AY  26063.76322271  .00077951  00000+0  99844-3 0  9991,2 45703  53.0375 339.7386 0011275  89.0994 271.1309 15.58450686319529
STARLINK-1411,45706,53.0463,0.0005413,15.60843357,381.5587208846755,388.8807308761143,1 45706U 20035BB  26063.25303688  .00139862  00000+0  16219-2 0  9993,2 45706  53.0463   7.9790 0005413 106.2259 253.9349 15.60843357319072
STARLINK-1423,45710,53.0516,0.0006969,15.51552759,407.4597020728752,416.9240624689837,1 45710U 20035BF  26063.24748746  .00134778  00000+0  22054-2 0  9990,2 45710  53.0516  48.2137 0006969  84.0811 276.0992 15.51552759318503
STARLINK-1433,45711,53.0514,0.0007121,15.53716967,401.053912329593,410.7157161974674,1 45711U 20035BG  26063.79399767  .00121290  00000+0  18397-2 0  9996,2 45711  53.0514  44.6992 0007121  78.2161 281.9647 15.53716967318603
STARLINK-1434,45712,53.0567,0.0004978,15.26061375,484.18241218811,491.01794012068876,1 45712U 20035BH  26063.33059884  .00077334  00000+0  29443-2 0  9993,2 45712  53.0567  44.8463 0004978  65.4645 294.6871 15.26061375318571
STARLINK-1465,45731,53.0519,0.0002716,15.48822222,418.32391181498497,422.01675235777475,1 45731U 20038B   26062.90415638  .00100452  00000+0  18216-2 0  9996,2 45731  53.0519 250.8987 0002716 212.7760 147.3079 15.48822222315483
STARLINK-1471,45735,53.0476,0.0001332,15.48562477,420.02487527853464,421.8361468634839,1 45735U 20038F   26063.48376453  .00040872  00000+0  75857-3 0  9999,2 45735  53.0476 166.9589 0001332 206.2504 153.8436 15.48562477316721
STARLINK-1480,45741,53.0508,0.0008022,15.47157601,419.58824411605565,430.5032705319072,1 45741U 20038M   26063.75748123  .00051328  00000+0  99569-3 0  9997,2 45741  53.0508 240.8269 0008022 162.2490 197.8799 15.47157601315715
STARLINK-1500,45744,53.0373,0.0001896,15.34455665,461.2408051563234,463.8347890393825,1 45744U 20038Q   26063.79327990  .00036176  00000+0  10747-2 0  9993,2 45744  53.0373 215.7158 0001896 221.6623 138.4234 15.34455665316067
STARLINK-1504,45746,53.024,0.0001197,15.52765884,407.84233529398443,409.46709323037794,1 45746U 20038S   26063.47389519  .00047108  00000+0  75165-3 0  9998,2 45746  53.0240 167.3421 0001197 168.3591 191.7446 15.52765884316707
STARLINK-1506,45747,53.0745,0.0002714,15.25846445,486.38136127408325,490.10843336794915,1 45747U 20038T   26063.42077558  .00013868  00000+0  54696-3 0  9993,2 45747  53.0745 226.7318 0002714 201.7048 158.3835 15.25846445315880
STARLINK-1464,45751,53.0511,0.00028,15.43069049,435.14945074581556,438.9659597807631,1 45751U 20038X   26062.73993014  .00047975  00000+0  10717-2 0  9996,2 45751  53.0511 232.8975 0002800 206.1244 153.9620 15.43069049315730
STARLINK-1477,45754,53.0492,0.0001444,15.13986463,523.0606112511505,525.0539649615557,1 45754U 20038AA  26063.74887266  .00036191  00000+0  19776-2 0  9994,2 45754  53.0492 235.4144 0001444  76.2893 283.8260 15.13986463315780
STARLINK-1478,45755,53.0531,0.0003988,15.53880258,402.7042572800465,408.1148139968718,1 45755U 20038AB  26063.81130765  .00103517  00000+0  15664-2 0  9997,2 45755  53.0531 221.4585 0003988 202.3301 157.7536 15.53880258315975
STARLINK-1484,45756,52.9983,0.0006613,15.98689127,273.6530508569185,282.45653011901686,1 45756U 20038AC  26063.91668981  .00500745  11801-3  10312-2 0  9999,2 45756  52.9983  81.2858 0006613  43.5663  47.7477 15.98689127  6086
STARLINK-1493,45759,53.0526,0.0001384,15.49215111,418.08016614315784,419.961619447884,1 45759U 20038AF  26063.91668981  .00125345  00000+0  22329-2 0  9997,2 45759  53.0526 227.3943 0001384  64.6390 190.8227 15.49215111  5955
STARLINK-1494,45760,53.0481,0.0004536,15.72718511,348.0788744226693,354.18366659767617,1 45760U 20038AG  26063.91668981  .00051899  00000+0  37938-3 0  9994,2 45760  53.0481 175.3334 0004536 344.5747 339.0282 15.72718511  5968
STARLINK-1502,45764,53.0534,0.0001237,15.45978292,427.6630890300312,429.3470522783109,1 45764U 20038AL  26062.74121007  .00102908  00000+0  20586-2 0  9999,2 45764  53.0534 234.4394 0001237  37.8172 322.2921 15.45978292315718
STARLINK-1470,45772,53.0488,1.95e-05,15.2749586,483.1672549918103,483.4348510758791,1 45772U 20038AU  26063.76808074  .00058677  00000+0  21482-2 0  9996,2 45772  53.0488 197.1543 0000195  42.5460 317.5554 15.27495860316323
STARLINK-1482,45773,53.1595,0.0001038,15.30200826,474.5012254445164,475.9239808221273,1 45773U 20038AV  26063.39049852  .00007717  00000+0  27240-3 0  9995,2 45773  53.1595 215.6309 0001038  97.1658 262.9461 15.30200826316030
STARLINK-1496,45780,53.0511,0.0004183,15.4691402,422.9138327683286,428.6059729172466,1 45780U 20038BC  26063.00001156  .00091457  00000+0  17747-2 0  9990,2 45780  53.0511 205.0242 0004183 190.3327  38.9905 15.46914020  5895
STARLINK-1513,45786,53.162,0.0001183,15.30201728,474.3991589882089,476.02066086709874,1 45786U 20038BJ  26063.40000291  .00006514  00000+0  23184-3 0  9992,2 45786  53.1620 215.7184 0001183  76.4400 283.6732 15.30201728316034
STARLINK-1522,46027,53.0641,0.0001566,15.08977104,538.2410741688836,540.407623063269,1 46027U 20055A   26063.91668981 -.00014177  00000+0 -87101-3 0  9997,2 46027  53.0641 147.9898 0001566  63.6757 316.3994 15.08977104  5842
STARLINK-1523,46028,53.079,2.55e-05,15.12905213,527.1694011785312,527.5215807855711,1 46028U 20055B   26063.91668981  .00045894  00000+0  25769-2 0  9997,2 46028  53.0790 147.9461 0000255 130.5140 194.0585 15.12905213  5730
STARLINK-1526,46029,53.0814,5.28e-05,15.1334256,525.6504587519676,526.3795372029535,1 46029U 20055C   26063.91668981  .00043861  00000+0  24343-2 0  9997,2 46029  53.0814 147.9249 0000528  50.9113 324.7754 15.13342560  5843
STARLINK-1555,46032,53.0753,0.0001392,15.12117754,528.7811315228555,530.704285233669,1 46032U 20055F   26063.91668981  .00043154  00000+0  24787-2 0  9998,2 46032  53.0753 147.9788 0001392  55.9885  10.9927 15.12117754  5736
STARLINK-1556,46033,53.0803,0.0002035,15.13197631,525.0507440001256,527.8609132813835,1 46033U 20055G   26063.91668981  .00048526  00000+0  27005-2 0  9993,2 46033  53.0803 147.9444 0002035  83.7094 101.6587 15.13197631  5843
STARLINK-1557,46034,53.0843,0.0002015,15.14128724,522.2342427130525,525.0156527779936,1 46034U 20055H   26063.91668981  .00049452  00000+0  26806-2 0  9991,2 46034  53.0843 147.9075 0002015  83.9461 101.7277 15.14128724  5841
STARLINK-1558,46035,53.0733,0.0001962,15.11792046,529.379330746513,532.090372061004,1 46035U 20055J   26063.91668981  .00047794  00000+0  27665-2 0  9993,2 46035  53.0733 147.9947 0001962  54.1194  44.3152 15.11792046  5734
